[{"OBJECT_NAME":"STARLINK-2460","OBJECT_ID":"2021-027AE","EPOCH":"2026-03-09T13:14:46.789152","MEAN_MOTION":15.3019311,"ECCENTRICITY":0.00011734,"INCLINATION":53.1595,"RA_OF_ASC_NODE":168.4494,"ARG_OF_PERICENTER":88.5814,"MEAN_ANOMALY":271.5321,"EPHEMERIS_TYPE":0,"CLASSIFICATION_TYPE":"U","NORAD_CAT_ID":48120,"ELEMENT_SET_NO":999,"REV_AT_EPOCH":27246,"BSTAR":6.0876706e-5,"MEAN_MOTION_DOT":1.444e-5,"MEAN_MOTION_DDOT":0},{"OBJECT_NAME":"OKEAN-1","OBJECT_ID":"1988-056A","EPOCH":"2026-03-09T21:19:04.260000","MEAN_MOTION":15.31672069,"ECCENTRICITY":0.00129431,"INCLINATION":82.4671,"RA_OF_ASC_NODE":262.7586,"ARG_OF_PERICENTER":168.0696,"MEAN_ANOMALY":192.0855,"EPHEMERIS_TYPE":0,"CLASSIFICATION_TYPE":"U","NORAD_CAT_ID":19274,"ELEMENT_SET_NO":999,"REV_AT_EPOCH":3511,"BSTAR":0.00038371192,"MEAN_MOTION_DOT":0.00011798,"MEAN_MOTION_DDOT":0}]
